ccaa,provincia,municipio,id,nombre,codigo_ine,titularidad,fin,uso,descripcion,direccion,latitud,longitud,coor_google,foto_1,fuente_1,foto_2,fuente_2,foto_3,fuente_3,participante,revision
Comunidad de Madrid,Comunidad de Madrid,Pozuelo de Alarcón,2811501,-,28115,Privada,Residencial,No,,"Calle Vitoria, 25, 28223",40.4070575,-3.7802787,"https://www.google.com/maps/@40.4070575,-3.7802787,3a,75y,38.85h,91.79t/data=!3m6!1e1!3m4!1saV3V6buKjFqSr3A856PnOA!2e0!7i16384!8i8192?hl=es",,,,,,,??? Me lo pasó Isabel,No
Galicia,A Coruña,O Porto de Espasante (Ortigueira),1506101,-,15061,Privada,Residencial,No,Cerca de la zona figura un cartel de venta donde figura que la obra es de 2010,"Calle de la Iglesia de San Juan, 49, 15339",43.719186955856436,-7.805884923864598,"https://www.google.com/maps?q=43.7190513,-7.8058742&z=17&hl=es",,,https://rtve.es/contenidos/fotos/datos/2023/hormigon/espasante_12.jpeg,Isabel,https://rtve.es/contenidos/fotos/datos/2023/hormigon/espasante_13.jpeg,Isabel,??? Me lo pasó Isabel,No
Galicia,Lugo,Lugo,2702801,O Garañón,27028,Privada,Residencial,No,"Conocido como O Garañón, tiene orden de demolición desde diciembre de 2022. La empresa viguesa Xestión Ambiental de Contratas tiene un mes de plazo para presentar el proyecto de demolición y cuatro para echar abajo el edificio, si no hay alegaciones.","Plaza de Avilés s/n, 27002",43.004440,-7.561869,"https://www.google.com/maps/@43.0043167,-7.5613337,3a,75y,98.33h,93.55t/data=!3m6!1e1!3m4!1s-gSWtFQ1-r7kd2gqCgNNSA!2e0!7i13312!8i6656?hl=es",,,https://rtve.es/contenidos/fotos/datos/2023/hormigon/espasante_12.jpeg,Isabel,https://rtve.es/contenidos/fotos/datos/2023/hormigon/espasante_13.jpeg,Isabel,??? Me lo pasó Antía,Sí
Islas Canarias,Santa Cruz de Tenerife,La Matanza de Acentejo,3802501,El Esqueleto,38025,Privada,Complejo hotelero,No,"El mamotreto de Acentejo, también conocido como El Esqueleto, está formado por las enormes estructuras de dos hoteles inacabados de los años 70 del siglo XX. En 2019, el PSOE presentó un nuevo Plan de Costa Acentejo para demoler el mamotreto.","Costa de Acentejo, Carretera El Caletón, 38379",28.459616,-16.463495,"https://www.google.com/maps/@28.459616,-16.463495,3a,53.3y,77.65h,90.59t/data=!3m8!1e1!3m6!1sAF1QipOM9je1OL6BYVvs7ku7AjN1pTnY5tXlCfTb_wp1!2e10!3e11!6shttps:%2F%2Flh5.googleusercontent.com%2Fp%2FAF1QipOM9je1OL6BYVvs7ku7AjN1pTnY5tXlCfTb_wp1%3Dw203-h100-k-no-pi-0-ya159.61748-ro-0-fo100!7i12000!8i6000?hl=es",,,https://rtve.es/contenidos/fotos/datos/2023/hormigon/espasante_12.jpeg,Isabel,https://rtve.es/contenidos/fotos/datos/2023/hormigon/espasante_13.jpeg,Isabel,??? Me lo pasó Bárbara,No
Comunidad de Madrid,Comunidad de Madrid,Alcorcón,2800701,Centro de Creación de las Artes de Alcorcón (CREAA),28007,Pública,Espacio artístico,No,"Iba a ser el Centro de Creación de las Artes de Alcorcón (CREAA). En 2023, si el PSOE gana las elecciones, se pretende acabarlo y habilitar un espacio contra la violencia de género.","Av. de la Libertad, s/n, 28925",40.3514669,-3.8065464,"https://www.google.com/maps/@40.3514669,-3.8065464,3a,75y,28.02h,90.55t/data=!3m6!1e1!3m4!1s8IEabplRvpI3Nfkj74EaSw!2e0!7i16384!8i8192?hl=es",,,https://rtve.es/contenidos/fotos/datos/2023/hormigon/espasante_12.jpeg,Isabel,https://rtve.es/contenidos/fotos/datos/2023/hormigon/espasante_13.jpeg,Isabel,??? Me lo pasó Isabel,Sí
Castilla-La Mancha,Albacete,Albacete,,,02003,Pública,Residencial,No,"Lorem ipsum dolor sit amet, consectetur adipiscing elit, sed do eiusmod tempor incididunt ut labore et dolore magna aliqua. Ut enim ad minim veniam, quis nostrud exercitation ullamco laboris nisi ut aliquip ex ea commodo consequat.","Avenida Principe, 2",38.900944,-1.994028,,,,https://rtve.es/contenidos/fotos/datos/2023/hormigon/espasante_12.jpeg,Isabel,https://rtve.es/contenidos/fotos/datos/2023/hormigon/espasante_13.jpeg,Isabel,Perico,
Castilla-La Mancha,Albacete,Albacete,,,02003,Pública,Ocio,No,"Lorem ipsum dolor sit amet, consectetur adipiscing elit, sed do eiusmod tempor incididunt ut labore et dolore magna aliqua. Ut enim ad minim veniam, quis nostrud exercitation ullamco laboris nisi ut aliquip ex ea commodo consequat.","Avenida Principe, 2",38.900944,-1.994028,,,,https://rtve.es/contenidos/fotos/datos/2023/hormigon/espasante_12.jpeg,Isabel,https://rtve.es/contenidos/fotos/datos/2023/hormigon/espasante_13.jpeg,Isabel,Perico,
Comunidad de Madrid,Madrid,Meco,,,28083,Pública,Residencial,No,"Duis aute irure dolor in reprehenderit in voluptate velit esse cillum dolore eu fugiat nulla pariatur. Excepteur sint occaecat cupidatat non proident, sunt in culpa qui officia deserunt mollit anim id est laborum.","Au R-2 ,P.k. 35,5 M.i.",40.557,-3.294472,,,,https://rtve.es/contenidos/fotos/datos/2023/hormigon/espasante_12.jpeg,Isabel,https://rtve.es/contenidos/fotos/datos/2023/hormigon/espasante_13.jpeg,Isabel,Perico,
Comunidad de Madrid,Madrid,Collado Villalba,,,28047,Pública,Residencial,No,"Lorem ipsum dolor sit amet, consectetur adipiscing elit, sed do eiusmod tempor incididunt ut labore et dolore magna aliqua. Ut enim ad minim veniam, quis nostrud exercitation ullamco laboris nisi ut aliquip ex ea commodo consequat.","Autopista Ap-6 (Mrg.izdo.) Km. 42,3",40.642583,-4.039111,,,,https://rtve.es/contenidos/fotos/datos/2023/hormigon/espasante_12.jpeg,Isabel,https://rtve.es/contenidos/fotos/datos/2023/hormigon/espasante_13.jpeg,Isabel,Perico,
Comunidad de Madrid,Madrid,San Lorenzo De El Escorial,,,28131,Pública,Residencial,No,"Duis aute irure dolor in reprehenderit in voluptate velit esse cillum dolore eu fugiat nulla pariatur. Excepteur sint occaecat cupidatat non proident, sunt in culpa qui officia deserunt mollit anim id est laborum.","Autopista Ap-6 Km. 42,3",40.643667,-4.038167,,,,https://rtve.es/contenidos/fotos/datos/2023/hormigon/espasante_12.jpeg,Isabel,https://rtve.es/contenidos/fotos/datos/2023/hormigon/espasante_13.jpeg,Isabel,Perico,
Comunidad de Madrid,Madrid,Madrid,,,28079,Pública,Residencial,No,"Lorem ipsum dolor sit amet, consectetur adipiscing elit, sed do eiusmod tempor incididunt ut labore et dolore magna aliqua. Ut enim ad minim veniam, quis nostrud exercitation ullamco laboris nisi ut aliquip ex ea commodo consequat.",Autopista M-50 Km. 34,40.343944,-3.588028,,,,https://rtve.es/contenidos/fotos/datos/2023/hormigon/espasante_12.jpeg,Isabel,https://rtve.es/contenidos/fotos/datos/2023/hormigon/espasante_13.jpeg,Isabel,Perico,
Comunidad de Madrid,Madrid,Pinto,,,28113,Pública,Residencial,No,"Duis aute irure dolor in reprehenderit in voluptate velit esse cillum dolore eu fugiat nulla pariatur. Excepteur sint occaecat cupidatat non proident, sunt in culpa qui officia deserunt mollit anim id est laborum.","Autovia A - 4 Km. 23,300",40.218333,-3.685278,,,,https://rtve.es/contenidos/fotos/datos/2023/hormigon/espasante_12.jpeg,Isabel,https://rtve.es/contenidos/fotos/datos/2023/hormigon/espasante_13.jpeg,Isabel,Perico,
Comunidad de Madrid,Madrid,Colmenar Viejo,,,28045,Pública,Residencial,No,"Lorem ipsum dolor sit amet, consectetur adipiscing elit, sed do eiusmod tempor incididunt ut labore et dolore magna aliqua. Ut enim ad minim veniam, quis nostrud exercitation ullamco laboris nisi ut aliquip ex ea commodo consequat.","Autovia A-1 Km. 29,1",40.633722,-3.590806,,,,https://rtve.es/contenidos/fotos/datos/2023/hormigon/espasante_12.jpeg,Isabel,https://rtve.es/contenidos/fotos/datos/2023/hormigon/espasante_13.jpeg,Isabel,Perico,
Comunidad de Madrid,Madrid,El Molar,,,28086,Pública,Residencial,No,"Duis aute irure dolor in reprehenderit in voluptate velit esse cillum dolore eu fugiat nulla pariatur. Excepteur sint occaecat cupidatat non proident, sunt in culpa qui officia deserunt mollit anim id est laborum.",Autovia A-1 Km. 41,40.716889,-3.578472,,,,https://rtve.es/contenidos/fotos/datos/2023/hormigon/espasante_12.jpeg,Isabel,https://rtve.es/contenidos/fotos/datos/2023/hormigon/espasante_13.jpeg,Isabel,Perico,
Comunidad de Madrid,Madrid,Somosierra,,,28143,Pública,Residencial,No,"Lorem ipsum dolor sit amet, consectetur adipiscing elit, sed do eiusmod tempor incididunt ut labore et dolore magna aliqua. Ut enim ad minim veniam, quis nostrud exercitation ullamco laboris nisi ut aliquip ex ea commodo consequat.","Autovia A-1 Km. 92,5",41.134917,-3.580806,,,,https://rtve.es/contenidos/fotos/datos/2023/hormigon/espasante_12.jpeg,Isabel,https://rtve.es/contenidos/fotos/datos/2023/hormigon/espasante_13.jpeg,Isabel,Perico,
Comunidad de Madrid,Madrid,Perales De Tajuña,,,28110,Pública,Residencial,No,"Duis aute irure dolor in reprehenderit in voluptate velit esse cillum dolore eu fugiat nulla pariatur. Excepteur sint occaecat cupidatat non proident, sunt in culpa qui officia deserunt mollit anim id est laborum.","Autovia A-3 (Madrid-Levante) Km. 37,870",40.249833,-3.350278,,,,https://rtve.es/contenidos/fotos/datos/2023/hormigon/espasante_12.jpeg,Isabel,https://rtve.es/contenidos/fotos/datos/2023/hormigon/espasante_13.jpeg,Isabel,Perico,
Comunidad de Madrid,Madrid,Perales De Tajuña,,,28110,Pública,Residencial,No,"Lorem ipsum dolor sit amet, consectetur adipiscing elit, sed do eiusmod tempor incididunt ut labore et dolore magna aliqua. Ut enim ad minim veniam, quis nostrud exercitation ullamco laboris nisi ut aliquip ex ea commodo consequat.","Autovia A-3 Km. 43,3",40.207361,-3.318806,,,,https://rtve.es/contenidos/fotos/datos/2023/hormigon/espasante_12.jpeg,Isabel,https://rtve.es/contenidos/fotos/datos/2023/hormigon/espasante_13.jpeg,Isabel,Perico,
Comunidad de Madrid,Madrid,Villarejo De Salvanés,,,28180,Pública,Residencial,No,"Duis aute irure dolor in reprehenderit in voluptate velit esse cillum dolore eu fugiat nulla pariatur. Excepteur sint occaecat cupidatat non proident, sunt in culpa qui officia deserunt mollit anim id est laborum.","Autovia A-3 Km. 49,3",40.167722,-3.285472,,,,https://rtve.es/contenidos/fotos/datos/2023/hormigon/espasante_12.jpeg,Isabel,https://rtve.es/contenidos/fotos/datos/2023/hormigon/espasante_13.jpeg,Isabel,Perico,
Comunidad de Madrid,Madrid,Fuentidueña De Tajo,,,28060,Pública,Residencial,No,"Lorem ipsum dolor sit amet, consectetur adipiscing elit, sed do eiusmod tempor incididunt ut labore et dolore magna aliqua. Ut enim ad minim veniam, quis nostrud exercitation ullamco laboris nisi ut aliquip ex ea commodo consequat.","Autovia A-3 Km. 62,5",40.120278,-3.152778,,,,https://rtve.es/contenidos/fotos/datos/2023/hormigon/espasante_12.jpeg,Isabel,https://rtve.es/contenidos/fotos/datos/2023/hormigon/espasante_13.jpeg,Isabel,Perico,
Comunidad de Madrid,Madrid,Getafe,,,28065,Pública,Residencial,No,"Duis aute irure dolor in reprehenderit in voluptate velit esse cillum dolore eu fugiat nulla pariatur. Excepteur sint occaecat cupidatat non proident, sunt in culpa qui officia deserunt mollit anim id est laborum.","Autovia A-4 Km. 14,3",40.297028,-3.692278,,,,https://rtve.es/contenidos/fotos/datos/2023/hormigon/espasante_12.jpeg,Isabel,https://rtve.es/contenidos/fotos/datos/2023/hormigon/espasante_13.jpeg,Isabel,Perico,
Comunidad de Madrid,Madrid,Navalcarnero,,,28096,Pública,Residencial,No,"Lorem ipsum dolor sit amet, consectetur adipiscing elit, sed do eiusmod tempor incididunt ut labore et dolore magna aliqua. Ut enim ad minim veniam, quis nostrud exercitation ullamco laboris nisi ut aliquip ex ea commodo consequat.","Autovia A-5 Km. 28,6",40.293194,-3.981139,,,,https://rtve.es/contenidos/fotos/datos/2023/hormigon/espasante_12.jpeg,Isabel,https://rtve.es/contenidos/fotos/datos/2023/hormigon/espasante_13.jpeg,Isabel,Perico,
Comunidad de Madrid,Madrid,La Serna Del Monte,,,28138,Pública,Residencial,No,"Duis aute irure dolor in reprehenderit in voluptate velit esse cillum dolore eu fugiat nulla pariatur. Excepteur sint occaecat cupidatat non proident, sunt in culpa qui officia deserunt mollit anim id est laborum.",Autovia A-I Km. 81,41.040139,-3.617861,,,,https://rtve.es/contenidos/fotos/datos/2023/hormigon/espasante_12.jpeg,Isabel,https://rtve.es/contenidos/fotos/datos/2023/hormigon/espasante_13.jpeg,Isabel,Perico,
Comunidad de Madrid,Madrid,Venturada,,,28169,Pública,Residencial,No,"Lorem ipsum dolor sit amet, consectetur adipiscing elit, sed do eiusmod tempor incididunt ut labore et dolore magna aliqua. Ut enim ad minim veniam, quis nostrud exercitation ullamco laboris nisi ut aliquip ex ea commodo consequat.",Autovia E-5/A-1 Km. 49,40.793611,-3.617222,,,,https://rtve.es/contenidos/fotos/datos/2023/hormigon/espasante_12.jpeg,Isabel,https://rtve.es/contenidos/fotos/datos/2023/hormigon/espasante_13.jpeg,Isabel,Perico,
Comunidad de Madrid,Madrid,Colmenar Del Arroyo,,,28042,Pública,Residencial,No,"Duis aute irure dolor in reprehenderit in voluptate velit esse cillum dolore eu fugiat nulla pariatur. Excepteur sint occaecat cupidatat non proident, sunt in culpa qui officia deserunt mollit anim id est laborum.","Autovia M-501 Km. 34,1",40.381917,-4.170417,,,,https://rtve.es/contenidos/fotos/datos/2023/hormigon/espasante_12.jpeg,Isabel,https://rtve.es/contenidos/fotos/datos/2023/hormigon/espasante_13.jpeg,Isabel,Perico,
Comunidad de Madrid,Madrid,Lozoyuela-Navas-Sieteiglesias,,,28901,Pública,Residencial,No,"Lorem ipsum dolor sit amet, consectetur adipiscing elit, sed do eiusmod tempor incididunt ut labore et dolore magna aliqua. Ut enim ad minim veniam, quis nostrud exercitation ullamco laboris nisi ut aliquip ex ea commodo consequat.",Autovia N-1 Km. 65,40.904694,-3.608389,,,,https://rtve.es/contenidos/fotos/datos/2023/hormigon/espasante_12.jpeg,Isabel,https://rtve.es/contenidos/fotos/datos/2023/hormigon/espasante_13.jpeg,Isabel,Perico,
Comunidad de Madrid,Madrid,Aranjuez,,,28013,Pública,Residencial,No,"Duis aute irure dolor in reprehenderit in voluptate velit esse cillum dolore eu fugiat nulla pariatur. Excepteur sint occaecat cupidatat non proident, sunt in culpa qui officia deserunt mollit anim id est laborum.","Autovia N-Iv Km. 48,700",40.02075,-3.645278,,,,https://rtve.es/contenidos/fotos/datos/2023/hormigon/espasante_12.jpeg,Isabel,https://rtve.es/contenidos/fotos/datos/2023/hormigon/espasante_13.jpeg,Isabel,Perico,
Cataluña,Barcelona,Molins De Rei,,,08123,Pública,Residencial,No,"Lorem ipsum dolor sit amet, consectetur adipiscing elit, sed do eiusmod tempor incididunt ut labore et dolore magna aliqua. Ut enim ad minim veniam, quis nostrud exercitation ullamco laboris nisi ut aliquip ex ea commodo consequat.","A-2 Km 8,000",41.391917,2.024121,,,,https://rtve.es/contenidos/fotos/datos/2023/hormigon/espasante_12.jpeg,Isabel,https://rtve.es/contenidos/fotos/datos/2023/hormigon/espasante_13.jpeg,Isabel,Perico,
Cataluña,Barcelona,Sant Boi De Llobregat,,,08200,Pública,Residencial,No,"Duis aute irure dolor in reprehenderit in voluptate velit esse cillum dolore eu fugiat nulla pariatur. Excepteur sint occaecat cupidatat non proident, sunt in culpa qui officia deserunt mollit anim id est laborum.","Acceso Aeropuerto De Barcelona, Lado Aire, S/N",41.293806,2.059222,,,,https://rtve.es/contenidos/fotos/datos/2023/hormigon/espasante_12.jpeg,Isabel,https://rtve.es/contenidos/fotos/datos/2023/hormigon/espasante_13.jpeg,Isabel,Perica,
Cataluña,Barcelona,Santpedor,,,08192,Pública,Residencial,No,"Lorem ipsum dolor sit amet, consectetur adipiscing elit, sed do eiusmod tempor incididunt ut labore et dolore magna aliqua. Ut enim ad minim veniam, quis nostrud exercitation ullamco laboris nisi ut aliquip ex ea commodo consequat.","Acceso Ctra, 4",41.779139,1.851972,,,,https://rtve.es/contenidos/fotos/datos/2023/hormigon/espasante_12.jpeg,Isabel,https://rtve.es/contenidos/fotos/datos/2023/hormigon/espasante_13.jpeg,Isabel,Perica,
Cataluña,Barcelona,Mataró,,,08121,Pública,Residencial,No,"Duis aute irure dolor in reprehenderit in voluptate velit esse cillum dolore eu fugiat nulla pariatur. Excepteur sint occaecat cupidatat non proident, sunt in culpa qui officia deserunt mollit anim id est laborum.","Alfonso X El Sabio, S/N,",41.545472,2.449306,,,,https://rtve.es/contenidos/fotos/datos/2023/hormigon/espasante_12.jpeg,Isabel,https://rtve.es/contenidos/fotos/datos/2023/hormigon/espasante_13.jpeg,Isabel,Perica,
Cataluña,Barcelona,Barcelona,,,08019,Pública,Residencial,No,"Lorem ipsum dolor sit amet, consectetur adipiscing elit, sed do eiusmod tempor incididunt ut labore et dolore magna aliqua. Ut enim ad minim veniam, quis nostrud exercitation ullamco laboris nisi ut aliquip ex ea commodo consequat.","Almogavares, 66",41.394195,2.186482,,,,https://rtve.es/contenidos/fotos/datos/2023/hormigon/espasante_12.jpeg,Isabel,https://rtve.es/contenidos/fotos/datos/2023/hormigon/espasante_13.jpeg,Isabel,Perica,
Cataluña,Barcelona,Llinars Del Vallès,,,08106,Pública,Residencial,No,"Duis aute irure dolor in reprehenderit in voluptate velit esse cillum dolore eu fugiat nulla pariatur. Excepteur sint occaecat cupidatat non proident, sunt in culpa qui officia deserunt mollit anim id est laborum.",Autopista Ap 7 Km. 117,41.647972,2.425611,,,,https://rtve.es/contenidos/fotos/datos/2023/hormigon/espasante_12.jpeg,Isabel,https://rtve.es/contenidos/fotos/datos/2023/hormigon/espasante_13.jpeg,Isabel,Perica,
Cataluña,Barcelona,Cerdanyola Del Vallès,,,08266,Pública,Residencial,No,"Lorem ipsum dolor sit amet, consectetur adipiscing elit, sed do eiusmod tempor incididunt ut labore et dolore magna aliqua. Ut enim ad minim veniam, quis nostrud exercitation ullamco laboris nisi ut aliquip ex ea commodo consequat.",Autopista Ap-7 (Mrg.dcho.) Km. 151,41.492944,2.099,,,,https://rtve.es/contenidos/fotos/datos/2023/hormigon/espasante_12.jpeg,Isabel,https://rtve.es/contenidos/fotos/datos/2023/hormigon/espasante_13.jpeg,Isabel,Perica,
Cataluña,Barcelona,Castellbisbal,,,08054,Pública,Residencial,No,"Duis aute irure dolor in reprehenderit in voluptate velit esse cillum dolore eu fugiat nulla pariatur. Excepteur sint occaecat cupidatat non proident, sunt in culpa qui officia deserunt mollit anim id est laborum.","Autopista Ap-7 Km 165,5 Km. 165,5",41.468167,1.978,,,,https://rtve.es/contenidos/fotos/datos/2023/hormigon/espasante_12.jpeg,Isabel,https://rtve.es/contenidos/fotos/datos/2023/hormigon/espasante_13.jpeg,Isabel,Perica,
Cataluña,Barcelona,Santa Perpètua De Mogoda,,,08260,Pública,Residencial,No,"Lorem ipsum dolor sit amet, consectetur adipiscing elit, sed do eiusmod tempor incididunt ut labore et dolore magna aliqua. Ut enim ad minim veniam, quis nostrud exercitation ullamco laboris nisi ut aliquip ex ea commodo consequat.",Autopista Ap-7 Km. 144,41.526139,2.168083,,,,https://rtve.es/contenidos/fotos/datos/2023/hormigon/espasante_12.jpeg,Isabel,https://rtve.es/contenidos/fotos/datos/2023/hormigon/espasante_13.jpeg,Isabel,Perica,
Cataluña,Barcelona,Cubelles,,,08074,Pública,Residencial,No,"Duis aute irure dolor in reprehenderit in voluptate velit esse cillum dolore eu fugiat nulla pariatur. Excepteur sint occaecat cupidatat non proident, sunt in culpa qui officia deserunt mollit anim id est laborum.","Autopista Autopista C-32 (Pau Casal) Km. 16,75",41.222472,1.675722,,,,https://rtve.es/contenidos/fotos/datos/2023/hormigon/espasante_12.jpeg,Isabel,https://rtve.es/contenidos/fotos/datos/2023/hormigon/espasante_13.jpeg,Isabel,Perica,
Cataluña,Barcelona,Montcada I Reixac,,,08125,Pública,Residencial,No,"Lorem ipsum dolor sit amet, consectetur adipiscing elit, sed do eiusmod tempor incididunt ut labore et dolore magna aliqua. Ut enim ad minim veniam, quis nostrud exercitation ullamco laboris nisi ut aliquip ex ea commodo consequat.","Autopista C- 33 Km. 82,5",41.495222,2.191417,,,,https://rtve.es/contenidos/fotos/datos/2023/hormigon/espasante_12.jpeg,Isabel,https://rtve.es/contenidos/fotos/datos/2023/hormigon/espasante_13.jpeg,Isabel,Perica,
Cataluña,Barcelona,Terrassa,,,08279,Pública,Residencial,No,"Duis aute irure dolor in reprehenderit in voluptate velit esse cillum dolore eu fugiat nulla pariatur. Excepteur sint occaecat cupidatat non proident, sunt in culpa qui officia deserunt mollit anim id est laborum.","Autopista C-58 Km. 17,2",41.543139,2.050611,,,,https://rtve.es/contenidos/fotos/datos/2023/hormigon/espasante_12.jpeg,Isabel,https://rtve.es/contenidos/fotos/datos/2023/hormigon/espasante_13.jpeg,Isabel,Perica,
Cataluña,Barcelona,Teià,,,08281,Pública,Residencial,No,"Lorem ipsum dolor sit amet, consectetur adipiscing elit, sed do eiusmod tempor incididunt ut labore et dolore magna aliqua. Ut enim ad minim veniam, quis nostrud exercitation ullamco laboris nisi ut aliquip ex ea commodo consequat.",Autopista C32 Km. 89,41.493028,2.333917,,,,https://rtve.es/contenidos/fotos/datos/2023/hormigon/espasante_12.jpeg,Isabel,https://rtve.es/contenidos/fotos/datos/2023/hormigon/espasante_13.jpeg,Isabel,Perica,
Cataluña,Barcelona,Jorba,,,08103,Pública,Residencial,No,"Duis aute irure dolor in reprehenderit in voluptate velit esse cillum dolore eu fugiat nulla pariatur. Excepteur sint occaecat cupidatat non proident, sunt in culpa qui officia deserunt mollit anim id est laborum.",Autovia A-2 Km 543    Margen Derecho Km.,41.618806,1.509722,,,,https://rtve.es/contenidos/fotos/datos/2023/hormigon/espasante_12.jpeg,Isabel,https://rtve.es/contenidos/fotos/datos/2023/hormigon/espasante_13.jpeg,Isabel,Perica,
Cataluña,Barcelona,El Bruc,,,08025,Pública,Residencial,No,"Lorem ipsum dolor sit amet, consectetur adipiscing elit, sed do eiusmod tempor incididunt ut labore et dolore magna aliqua. Ut enim ad minim veniam, quis nostrud exercitation ullamco laboris nisi ut aliquip ex ea commodo consequat.",Autovia A-2 Km. 567,41.593778,1.750611,,,,https://rtve.es/contenidos/fotos/datos/2023/hormigon/espasante_12.jpeg,Isabel,https://rtve.es/contenidos/fotos/datos/2023/hormigon/espasante_13.jpeg,Isabel,Perica,
Cataluña,Barcelona,Tordera,,,08284,Pública,Residencial,No,"Duis aute irure dolor in reprehenderit in voluptate velit esse cillum dolore eu fugiat nulla pariatur. Excepteur sint occaecat cupidatat non proident, sunt in culpa qui officia deserunt mollit anim id est laborum.","Autovia A-2 Km. 680,9",41.693972,2.723667,,,,https://rtve.es/contenidos/fotos/datos/2023/hormigon/espasante_12.jpeg,Isabel,https://rtve.es/contenidos/fotos/datos/2023/hormigon/espasante_13.jpeg,Isabel,Perica,
Cataluña,Barcelona,Jorba,,,08103,Pública,Complejo hotelero,No,"Lorem ipsum dolor sit amet, consectetur adipiscing elit, sed do eiusmod tempor incididunt ut labore et dolore magna aliqua. Ut enim ad minim veniam, quis nostrud exercitation ullamco laboris nisi ut aliquip ex ea commodo consequat.",Autovia Autovia A-2 Km. 545,41.602306,1.54075,,,,https://rtve.es/contenidos/fotos/datos/2023/hormigon/espasante_12.jpeg,Isabel,https://rtve.es/contenidos/fotos/datos/2023/hormigon/espasante_13.jpeg,Isabel,Perica,
Cataluña,Barcelona,Sant Fruitós De Bages,,,08213,Pública,Complejo hotelero,No,"Duis aute irure dolor in reprehenderit in voluptate velit esse cillum dolore eu fugiat nulla pariatur. Excepteur sint occaecat cupidatat non proident, sunt in culpa qui officia deserunt mollit anim id est laborum.","Autovia C 16 , 35,6 Km. 35,6",41.773139,1.881472,,,,https://rtve.es/contenidos/fotos/datos/2023/hormigon/espasante_12.jpeg,Isabel,https://rtve.es/contenidos/fotos/datos/2023/hormigon/espasante_13.jpeg,Isabel,Perica,
Comunidad Valenciana,Valencia/València,Montesa,,,46174,Pública,Complejo hotelero,No,"Lorem ipsum dolor sit amet, consectetur adipiscing elit, sed do eiusmod tempor incididunt ut labore et dolore magna aliqua. Ut enim ad minim veniam, quis nostrud exercitation ullamco laboris nisi ut aliquip ex ea commodo consequat.",A-35 Km 39,38.954306,-0.629028,,,,https://rtve.es/contenidos/fotos/datos/2023/hormigon/espasante_12.jpeg,Isabel,https://rtve.es/contenidos/fotos/datos/2023/hormigon/espasante_13.jpeg,Isabel,Perica,
Comunidad Valenciana,Valencia/València,Mislata,,,46169,Pública,Complejo hotelero,No,"Duis aute irure dolor in reprehenderit in voluptate velit esse cillum dolore eu fugiat nulla pariatur. Excepteur sint occaecat cupidatat non proident, sunt in culpa qui officia deserunt mollit anim id est laborum.","Acceso Plan Parcial Les Viñes Cv 403 Nuevo Acceso A Xirivella C-3215, Sn",39.468611,-0.433111,,,,https://rtve.es/contenidos/fotos/datos/2023/hormigon/espasante_12.jpeg,Isabel,https://rtve.es/contenidos/fotos/datos/2023/hormigon/espasante_13.jpeg,Isabel,Benito,
Comunidad Valenciana,Valencia/València,Aldaia,,,46021,Pública,Complejo hotelero,No,"Lorem ipsum dolor sit amet, consectetur adipiscing elit, sed do eiusmod tempor incididunt ut labore et dolore magna aliqua. Ut enim ad minim veniam, quis nostrud exercitation ullamco laboris nisi ut aliquip ex ea commodo consequat.",Alcampo  Hipermercado  (C.c. Bonaire) Ctra.  N-Iii Km. 345,39.470722,-0.484833,,,,https://rtve.es/contenidos/fotos/datos/2023/hormigon/espasante_12.jpeg,Isabel,https://rtve.es/contenidos/fotos/datos/2023/hormigon/espasante_13.jpeg,Isabel,Benito,
Comunidad Valenciana,Valencia/València,Alzira,,,46017,Pública,Complejo hotelero,No,"Duis aute irure dolor in reprehenderit in voluptate velit esse cillum dolore eu fugiat nulla pariatur. Excepteur sint occaecat cupidatat non proident, sunt in culpa qui officia deserunt mollit anim id est laborum.",Alzira/Carcaixent Km 0.400,39.141611,-0.439472,,,,https://rtve.es/contenidos/fotos/datos/2023/hormigon/espasante_12.jpeg,Isabel,https://rtve.es/contenidos/fotos/datos/2023/hormigon/espasante_13.jpeg,Isabel,Benito,
Comunidad Valenciana,Valencia/València,Villanueva De Castellón,,,46257,Pública,Complejo hotelero,No,"Lorem ipsum dolor sit amet, consectetur adipiscing elit, sed do eiusmod tempor incididunt ut labore et dolore magna aliqua. Ut enim ad minim veniam, quis nostrud exercitation ullamco laboris nisi ut aliquip ex ea commodo consequat.","Area, Arrabal El Pla, 2",39.064694,-0.538222,,,,https://rtve.es/contenidos/fotos/datos/2023/hormigon/espasante_12.jpeg,Isabel,https://rtve.es/contenidos/fotos/datos/2023/hormigon/espasante_13.jpeg,Isabel,Benito,
Comunidad Valenciana,Valencia/València,Requena,,,46213,Pública,Complejo hotelero,No,"Duis aute irure dolor in reprehenderit in voluptate velit esse cillum dolore eu fugiat nulla pariatur. Excepteur sint occaecat cupidatat non proident, sunt in culpa qui officia deserunt mollit anim id est laborum.","At A-3, 281",39.530556,-1.165306,,,,https://rtve.es/contenidos/fotos/datos/2023/hormigon/espasante_12.jpeg,Isabel,https://rtve.es/contenidos/fotos/datos/2023/hormigon/espasante_13.jpeg,Isabel,Benito,
Comunidad Valenciana,Valencia/València,Buñol,,,46077,Pública,Complejo hotelero,No,"Lorem ipsum dolor sit amet, consectetur adipiscing elit, sed do eiusmod tempor incididunt ut labore et dolore magna aliqua. Ut enim ad minim veniam, quis nostrud exercitation ullamco laboris nisi ut aliquip ex ea commodo consequat.","At A-3, 322",39.444778,-0.754528,,,,https://rtve.es/contenidos/fotos/datos/2023/hormigon/espasante_12.jpeg,Isabel,https://rtve.es/contenidos/fotos/datos/2023/hormigon/espasante_13.jpeg,Isabel,Benito,
Comunidad Valenciana,Valencia/València,Chiva,,,46111,Pública,Complejo hotelero,No,"Duis aute irure dolor in reprehenderit in voluptate velit esse cillum dolore eu fugiat nulla pariatur. Excepteur sint occaecat cupidatat non proident, sunt in culpa qui officia deserunt mollit anim id est laborum.","At A-3, 337",39.475222,-0.588833,,,,https://rtve.es/contenidos/fotos/datos/2023/hormigon/espasante_12.jpeg,Isabel,https://rtve.es/contenidos/fotos/datos/2023/hormigon/espasante_13.jpeg,Isabel,Benito,
Andalucía,Sevilla,Dos Hermanas,,,41038,Pública,Complejo hotelero,No,"Lorem ipsum dolor sit amet, consectetur adipiscing elit, sed do eiusmod tempor incididunt ut labore et dolore magna aliqua. Ut enim ad minim veniam, quis nostrud exercitation ullamco laboris nisi ut aliquip ex ea commodo consequat.","A-4 Km 552,4",37.296389,-5.952556,,,,https://rtve.es/contenidos/fotos/datos/2023/hormigon/espasante_12.jpeg,Isabel,https://rtve.es/contenidos/fotos/datos/2023/hormigon/espasante_13.jpeg,Isabel,Benito,
Andalucía,Sevilla,Alcalá De Guadaíra,,,41004,Pública,Complejo hotelero,No,"Duis aute irure dolor in reprehenderit in voluptate velit esse cillum dolore eu fugiat nulla pariatur. Excepteur sint occaecat cupidatat non proident, sunt in culpa qui officia deserunt mollit anim id est laborum.","A-92 Km 15,4",37.346333,-5.827611,,,,https://rtve.es/contenidos/fotos/datos/2023/hormigon/espasante_12.jpeg,Isabel,https://rtve.es/contenidos/fotos/datos/2023/hormigon/espasante_13.jpeg,Isabel,Benito,
Andalucía,Sevilla,Las Cabezas De San Juan,,,41020,Pública,Complejo hotelero,No,"Lorem ipsum dolor sit amet, consectetur adipiscing elit, sed do eiusmod tempor incididunt ut labore et dolore magna aliqua. Ut enim ad minim veniam, quis nostrud exercitation ullamco laboris nisi ut aliquip ex ea commodo consequat.",Ap-4 Km 45,37.000861,-5.938889,,,,https://rtve.es/contenidos/fotos/datos/2023/hormigon/espasante_12.jpeg,Isabel,https://rtve.es/contenidos/fotos/datos/2023/hormigon/espasante_13.jpeg,Isabel,Benito,
Andalucía,Sevilla,Los Palacios Y Villafranca,,,41069,Pública,Complejo hotelero,No,"Duis aute irure dolor in reprehenderit in voluptate velit esse cillum dolore eu fugiat nulla pariatur. Excepteur sint occaecat cupidatat non proident, sunt in culpa qui officia deserunt mollit anim id est laborum.","Autopista Ap-4 Km. 20,2",37.19625,-5.911194,,,,https://rtve.es/contenidos/fotos/datos/2023/hormigon/espasante_12.jpeg,Isabel,https://rtve.es/contenidos/fotos/datos/2023/hormigon/espasante_13.jpeg,Isabel,Benito,
Andalucía,Sevilla,Carrión De Los Céspedes,,,41025,Pública,Complejo hotelero,No,"Lorem ipsum dolor sit amet, consectetur adipiscing elit, sed do eiusmod tempor incididunt ut labore et dolore magna aliqua. Ut enim ad minim veniam, quis nostrud exercitation ullamco laboris nisi ut aliquip ex ea commodo consequat.",Autopista Autopista Sevilla-Huelva Km. 28,37.358194,-6.323778,,,,https://rtve.es/contenidos/fotos/datos/2023/hormigon/espasante_12.jpeg,Isabel,https://rtve.es/contenidos/fotos/datos/2023/hormigon/espasante_13.jpeg,Isabel,Benito,
Andalucía,Sevilla,Estepa,,,41041,Pública,Complejo hotelero,No,"Duis aute irure dolor in reprehenderit in voluptate velit esse cillum dolore eu fugiat nulla pariatur. Excepteur sint occaecat cupidatat non proident, sunt in culpa qui officia deserunt mollit anim id est laborum.",Autovia A 92 Km 113.700,37.275778,-4.801167,,,,https://rtve.es/contenidos/fotos/datos/2023/hormigon/espasante_12.jpeg,Isabel,https://rtve.es/contenidos/fotos/datos/2023/hormigon/espasante_13.jpeg,Isabel,Benito,
Comunidad Valenciana,Alicante,Tibi,,,03129,Pública,Complejo hotelero,No,"Lorem ipsum dolor sit amet, consectetur adipiscing elit, sed do eiusmod tempor incididunt ut labore et dolore magna aliqua. Ut enim ad minim veniam, quis nostrud exercitation ullamco laboris nisi ut aliquip ex ea commodo consequat.",A-7 Km 17,38.498222,-0.603167,,,,https://rtve.es/contenidos/fotos/datos/2023/hormigon/espasante_12.jpeg,Isabel,https://rtve.es/contenidos/fotos/datos/2023/hormigon/espasante_13.jpeg,Isabel,Benito,
Comunidad Valenciana,Alicante,Alcoy/Alcoi,,,03009,Pública,Complejo hotelero,No,"Duis aute irure dolor in reprehenderit in voluptate velit esse cillum dolore eu fugiat nulla pariatur. Excepteur sint occaecat cupidatat non proident, sunt in culpa qui officia deserunt mollit anim id est laborum.","Alicante, 1 - P.i. Beniata",38.695083,-0.477972,,,,https://rtve.es/contenidos/fotos/datos/2023/hormigon/espasante_12.jpeg,Isabel,https://rtve.es/contenidos/fotos/datos/2023/hormigon/espasante_13.jpeg,Isabel,Benito,
Comunidad Valenciana,Alicante,L'alfàs Del Pi,,,03011,Pública,Complejo hotelero,No,"Lorem ipsum dolor sit amet, consectetur adipiscing elit, sed do eiusmod tempor incididunt ut labore et dolore magna aliqua. Ut enim ad minim veniam, quis nostrud exercitation ullamco laboris nisi ut aliquip ex ea commodo consequat.","Ap-1535 Km 2,000",38.567722,-0.082972,,,,https://rtve.es/contenidos/fotos/datos/2023/hormigon/espasante_12.jpeg,Isabel,https://rtve.es/contenidos/fotos/datos/2023/hormigon/espasante_13.jpeg,Isabel,Benito,
Comunidad Valenciana,Alicante,Agost,,,03002,Pública,Complejo hotelero,No,"Duis aute irure dolor in reprehenderit in voluptate velit esse cillum dolore eu fugiat nulla pariatur. Excepteur sint occaecat cupidatat non proident, sunt in culpa qui officia deserunt mollit anim id est laborum.",Autopista Ap 7 Km. 696,38.406528,-0.599972,,,,https://rtve.es/contenidos/fotos/datos/2023/hormigon/espasante_12.jpeg,Isabel,https://rtve.es/contenidos/fotos/datos/2023/hormigon/espasante_13.jpeg,Isabel,Benito,
Comunidad Valenciana,Alicante,Pedreguer,,,03101,Pública,Complejo hotelero,No,"Lorem ipsum dolor sit amet, consectetur adipiscing elit, sed do eiusmod tempor incididunt ut labore et dolore magna aliqua. Ut enim ad minim veniam, quis nostrud exercitation ullamco laboris nisi ut aliquip ex ea commodo consequat.","Autopista Ap-7 (Mrg.dcho.) Km. 613,2",38.789861,0.063417,,,,https://rtve.es/contenidos/fotos/datos/2023/hormigon/espasante_12.jpeg,Isabel,https://rtve.es/contenidos/fotos/datos/2023/hormigon/espasante_13.jpeg,Isabel,Benito,
Comunidad Valenciana,Alicante,Villajoyosa/La Vila Joiosa,,,03139,Pública,Complejo hotelero,No,"Duis aute irure dolor in reprehenderit in voluptate velit esse cillum dolore eu fugiat nulla pariatur. Excepteur sint occaecat cupidatat non proident, sunt in culpa qui officia deserunt mollit anim id est laborum.","Autopista Ap-7 (Mrg.dcho.) Km. 655,4",38.535972,-0.20225,,,,https://rtve.es/contenidos/fotos/datos/2023/hormigon/espasante_12.jpeg,Isabel,https://rtve.es/contenidos/fotos/datos/2023/hormigon/espasante_13.jpeg,Isabel,Benito,
Andalucía,Málaga,Antequera,,,29015,Pública,Complejo hotelero,Sí,"Lorem ipsum dolor sit amet, consectetur adipiscing elit, sed do eiusmod tempor incididunt ut labore et dolore magna aliqua. Ut enim ad minim veniam, quis nostrud exercitation ullamco laboris nisi ut aliquip ex ea commodo consequat.",A-354 Km 11,37.022722,-4.549972,,,,https://rtve.es/contenidos/fotos/datos/2023/hormigon/espasante_12.jpeg,Isabel,https://rtve.es/contenidos/fotos/datos/2023/hormigon/espasante_13.jpeg,Isabel,Benito,
Andalucía,Málaga,Almargen,,,29010,Pública,Complejo hotelero,Sí,"Duis aute irure dolor in reprehenderit in voluptate velit esse cillum dolore eu fugiat nulla pariatur. Excepteur sint occaecat cupidatat non proident, sunt in culpa qui officia deserunt mollit anim id est laborum.",A-384 Km 44,37.005806,-5.001444,,,,https://rtve.es/contenidos/fotos/datos/2023/hormigon/espasante_12.jpeg,Isabel,https://rtve.es/contenidos/fotos/datos/2023/hormigon/espasante_13.jpeg,Isabel,Benito,
Andalucía,Málaga,Casabermeja,,,29039,Pública,Complejo hotelero,Sí,"Lorem ipsum dolor sit amet, consectetur adipiscing elit, sed do eiusmod tempor incididunt ut labore et dolore magna aliqua. Ut enim ad minim veniam, quis nostrud exercitation ullamco laboris nisi ut aliquip ex ea commodo consequat.","A-45 Km 147,8",36.897833,-4.429333,,,,https://rtve.es/contenidos/fotos/datos/2023/hormigon/espasante_12.jpeg,Isabel,https://rtve.es/contenidos/fotos/datos/2023/hormigon/espasante_13.jpeg,Isabel,Benito,
Andalucía,Málaga,Mijas,,,29070,Pública,Complejo hotelero,Sí,"Duis aute irure dolor in reprehenderit in voluptate velit esse cillum dolore eu fugiat nulla pariatur. Excepteur sint occaecat cupidatat non proident, sunt in culpa qui officia deserunt mollit anim id est laborum.","Area, Arrabal Butiplaya La, 1",36.501889,-4.682833,,,,https://rtve.es/contenidos/fotos/datos/2023/hormigon/espasante_12.jpeg,Isabel,https://rtve.es/contenidos/fotos/datos/2023/hormigon/espasante_13.jpeg,Isabel,Benito,
Andalucía,Málaga,Algarrobo,,,29005,Pública,Complejo hotelero,Sí,"Lorem ipsum dolor sit amet, consectetur adipiscing elit, sed do eiusmod tempor incididunt ut labore et dolore magna aliqua. Ut enim ad minim veniam, quis nostrud exercitation ullamco laboris nisi ut aliquip ex ea commodo consequat.","Au A-7  277,8",36.760194,-4.050556,,,,https://rtve.es/contenidos/fotos/datos/2023/hormigon/espasante_12.jpeg,Isabel,https://rtve.es/contenidos/fotos/datos/2023/hormigon/espasante_13.jpeg,Isabel,Benito,
Región de Murcia,Murcia,Mazarrón,,,30026,Pública,Complejo hotelero,Sí,"Duis aute irure dolor in reprehenderit in voluptate velit esse cillum dolore eu fugiat nulla pariatur. Excepteur sint occaecat cupidatat non proident, sunt in culpa qui officia deserunt mollit anim id est laborum.",Autopista Ap-7 Km. 848,37.592722,-1.366028,,,,https://rtve.es/contenidos/fotos/datos/2023/hormigon/espasante_12.jpeg,Isabel,https://rtve.es/contenidos/fotos/datos/2023/hormigon/espasante_13.jpeg,Isabel,Benito,
Región de Murcia,Murcia,Fuente Álamo De Murcia,,,30021,Privada,Complejo hotelero,Sí,"Lorem ipsum dolor sit amet, consectetur adipiscing elit, sed do eiusmod tempor incididunt ut labore et dolore magna aliqua. Ut enim ad minim veniam, quis nostrud exercitation ullamco laboris nisi ut aliquip ex ea commodo consequat.",Autovia A-30 Km. 172,37.767583,-1.069333,,,,https://rtve.es/contenidos/fotos/datos/2023/hormigon/espasante_12.jpeg,Isabel,https://rtve.es/contenidos/fotos/datos/2023/hormigon/espasante_13.jpeg,Isabel,Benito,
Región de Murcia,Murcia,Torre-Pacheco,,,30037,Privada,Complejo hotelero,Sí,"Duis aute irure dolor in reprehenderit in voluptate velit esse cillum dolore eu fugiat nulla pariatur. Excepteur sint occaecat cupidatat non proident, sunt in culpa qui officia deserunt mollit anim id est laborum.",Autovia A-30 Km. 172,37.769,-1.068806,,,,https://rtve.es/contenidos/fotos/datos/2023/hormigon/espasante_12.jpeg,Isabel,https://rtve.es/contenidos/fotos/datos/2023/hormigon/espasante_13.jpeg,Isabel,Benito,
Región de Murcia,Murcia,Murcia,,,30030,Privada,Complejo hotelero,Sí,"Lorem ipsum dolor sit amet, consectetur adipiscing elit, sed do eiusmod tempor incididunt ut labore et dolore magna aliqua. Ut enim ad minim veniam, quis nostrud exercitation ullamco laboris nisi ut aliquip ex ea commodo consequat.","Autovia A-30 Km. 413,9",37.843167,-1.106861,,,,https://rtve.es/contenidos/fotos/datos/2023/hormigon/espasante_12.jpeg,Isabel,https://rtve.es/contenidos/fotos/datos/2023/hormigon/espasante_13.jpeg,Isabel,Benito,
Región de Murcia,Murcia,Librilla,,,30023,Privada,Complejo hotelero,Sí,"Duis aute irure dolor in reprehenderit in voluptate velit esse cillum dolore eu fugiat nulla pariatur. Excepteur sint occaecat cupidatat non proident, sunt in culpa qui officia deserunt mollit anim id est laborum.",Autovia A-7 Km. 591,37.892778,-1.339611,,,,https://rtve.es/contenidos/fotos/datos/2023/hormigon/espasante_12.jpeg,Isabel,https://rtve.es/contenidos/fotos/datos/2023/hormigon/espasante_13.jpeg,Isabel,Benita,
Andalucía,Cádiz,Jerez De La Frontera,,,11020,Privada,Complejo hotelero,Sí,"Lorem ipsum dolor sit amet, consectetur adipiscing elit, sed do eiusmod tempor incididunt ut labore et dolore magna aliqua. Ut enim ad minim veniam, quis nostrud exercitation ullamco laboris nisi ut aliquip ex ea commodo consequat.","A 480 Km 25,8",36.682111,-6.163639,,,,https://rtve.es/contenidos/fotos/datos/2023/hormigon/espasante_12.jpeg,Isabel,https://rtve.es/contenidos/fotos/datos/2023/hormigon/espasante_13.jpeg,Isabel,Benita,
Andalucía,Cádiz,Chiclana De La Frontera,,,11015,Privada,Complejo hotelero,Sí,"Duis aute irure dolor in reprehenderit in voluptate velit esse cillum dolore eu fugiat nulla pariatur. Excepteur sint occaecat cupidatat non proident, sunt in culpa qui officia deserunt mollit anim id est laborum.","Alameda Solano, 18 (N-340a Km 5,1)",36.426639,-6.14425,,,,https://rtve.es/contenidos/fotos/datos/2023/hormigon/espasante_12.jpeg,Isabel,https://rtve.es/contenidos/fotos/datos/2023/hormigon/espasante_13.jpeg,Isabel,Benita,
Andalucía,Cádiz,San Roque,,,11033,Privada,Complejo hotelero,Sí,"Lorem ipsum dolor sit amet, consectetur adipiscing elit, sed do eiusmod tempor incididunt ut labore et dolore magna aliqua. Ut enim ad minim veniam, quis nostrud exercitation ullamco laboris nisi ut aliquip ex ea commodo consequat.","Autovia A-7 Km. 116,000",36.207222,-5.410139,,,,https://rtve.es/contenidos/fotos/datos/2023/hormigon/espasante_12.jpeg,Isabel,https://rtve.es/contenidos/fotos/datos/2023/hormigon/espasante_13.jpeg,Isabel,Benita,
Andalucía,Cádiz,Conil De La Frontera,,,11014,Privada,Complejo hotelero,Sí,"Duis aute irure dolor in reprehenderit in voluptate velit esse cillum dolore eu fugiat nulla pariatur. Excepteur sint occaecat cupidatat non proident, sunt in culpa qui officia deserunt mollit anim id est laborum.","Autovia A48 Km. 24,400",36.309917,-6.057056,,,,https://rtve.es/contenidos/fotos/datos/2023/hormigon/espasante_12.jpeg,Isabel,https://rtve.es/contenidos/fotos/datos/2023/hormigon/espasante_13.jpeg,Isabel,Benita,
Islas Baleares,Baleares,Palma,,,7040,Privada,Complejo hotelero,Sí,"Lorem ipsum dolor sit amet, consectetur adipiscing elit, sed do eiusmod tempor incididunt ut labore et dolore magna aliqua. Ut enim ad minim veniam, quis nostrud exercitation ullamco laboris nisi ut aliquip ex ea commodo consequat.","Ae Vial Salida Aeropuerto, S.n.",39.545917,2.722944,,,,https://rtve.es/contenidos/fotos/datos/2023/hormigon/espasante_12.jpeg,Isabel,https://rtve.es/contenidos/fotos/datos/2023/hormigon/espasante_13.jpeg,Isabel,Benita,
Islas Baleares,Baleares,Ciutadella De Menorca,,,07015,Privada,Complejo hotelero,Sí,"Duis aute irure dolor in reprehenderit in voluptate velit esse cillum dolore eu fugiat nulla pariatur. Excepteur sint occaecat cupidatat non proident, sunt in culpa qui officia deserunt mollit anim id est laborum.","Autovia Ctra. Mahon - Ciudadela Km. 43,9",40.004639,3.850583,,,,https://rtve.es/contenidos/fotos/datos/2023/hormigon/espasante_12.jpeg,Isabel,https://rtve.es/contenidos/fotos/datos/2023/hormigon/espasante_13.jpeg,Isabel,Benita,
Islas Baleares,Baleares,Santanyí,,,07057,Privada,Complejo hotelero,Sí,"Lorem ipsum dolor sit amet, consectetur adipiscing elit, sed do eiusmod tempor incididunt ut labore et dolore magna aliqua. Ut enim ad minim veniam, quis nostrud exercitation ullamco laboris nisi ut aliquip ex ea commodo consequat.","Avenida Bienvenidos, 36",39.379917,3.226833,,,,https://rtve.es/contenidos/fotos/datos/2023/hormigon/espasante_12.jpeg,Isabel,https://rtve.es/contenidos/fotos/datos/2023/hormigon/espasante_13.jpeg,Isabel,Benita,
Islas Baleares,Baleares,Maó-Mahón,,,7032,Privada,Complejo hotelero,Sí,"Duis aute irure dolor in reprehenderit in voluptate velit esse cillum dolore eu fugiat nulla pariatur. Excepteur sint occaecat cupidatat non proident, sunt in culpa qui officia deserunt mollit anim id est laborum.","Avenida Cap De Cavalleria, 14",39.888806,4.249,,,,https://rtve.es/contenidos/fotos/datos/2023/hormigon/espasante_12.jpeg,Isabel,https://rtve.es/contenidos/fotos/datos/2023/hormigon/espasante_13.jpeg,Isabel,Benita,
País Vasco,Bizkaia,Abanto Y Ciérvana-Abanto Zierbena,,,48002,Privada,Complejo hotelero,Sí,"Lorem ipsum dolor sit amet, consectetur adipiscing elit, sed do eiusmod tempor incididunt ut labore et dolore magna aliqua. Ut enim ad minim veniam, quis nostrud exercitation ullamco laboris nisi ut aliquip ex ea commodo consequat.","At A-8, 131",43.327111,-3.067722,,,,https://rtve.es/contenidos/fotos/datos/2023/hormigon/espasante_12.jpeg,Isabel,https://rtve.es/contenidos/fotos/datos/2023/hormigon/espasante_13.jpeg,Isabel,Benita,
País Vasco,Bizkaia,Arrigorriaga,,,48011,Privada,Complejo hotelero,Sí,"Duis aute irure dolor in reprehenderit in voluptate velit esse cillum dolore eu fugiat nulla pariatur. Excepteur sint occaecat cupidatat non proident, sunt in culpa qui officia deserunt mollit anim id est laborum.","Au Ap-68, 6",43.190194,-2.897389,,,,https://rtve.es/contenidos/fotos/datos/2023/hormigon/espasante_12.jpeg,Isabel,https://rtve.es/contenidos/fotos/datos/2023/hormigon/espasante_13.jpeg,Isabel,Benita,
País Vasco,Bizkaia,Ugao-Miraballes,,,48065,Privada,Museo,No,"Lorem ipsum dolor sit amet, consectetur adipiscing elit, sed do eiusmod tempor incididunt ut labore et dolore magna aliqua. Ut enim ad minim veniam, quis nostrud exercitation ullamco laboris nisi ut aliquip ex ea commodo consequat.",Autopista Ap-68 Km. 6,43.18975,-2.894444,,,,https://rtve.es/contenidos/fotos/datos/2023/hormigon/espasante_12.jpeg,Isabel,https://rtve.es/contenidos/fotos/datos/2023/hormigon/espasante_13.jpeg,Isabel,Benita,
País Vasco,Bizkaia,Bilbao,,,48020,Privada,Museo,No,"Duis aute irure dolor in reprehenderit in voluptate velit esse cillum dolore eu fugiat nulla pariatur. Excepteur sint occaecat cupidatat non proident, sunt in culpa qui officia deserunt mollit anim id est laborum.","Avenida Alto De Enekuri, 5",43.286667,-2.958444,,,,https://rtve.es/contenidos/fotos/datos/2023/hormigon/espasante_12.jpeg,Isabel,https://rtve.es/contenidos/fotos/datos/2023/hormigon/espasante_13.jpeg,Isabel,Benita,
Islas Canarias,Las Palmas,Arrecife,,,35004,Privada,Museo,No,"Lorem ipsum dolor sit amet, consectetur adipiscing elit, sed do eiusmod tempor incididunt ut labore et dolore magna aliqua. Ut enim ad minim veniam, quis nostrud exercitation ullamco laboris nisi ut aliquip ex ea commodo consequat.","Acceso Aeropuerto De Lanzarote-Lado Aire, Sn",28.955417,-13.603778,,,,https://rtve.es/contenidos/fotos/datos/2023/hormigon/espasante_12.jpeg,Isabel,https://rtve.es/contenidos/fotos/datos/2023/hormigon/espasante_13.jpeg,Isabel,Benita,
Islas Canarias,Las Palmas,Telde,,,35026,Privada,Museo,No,"Duis aute irure dolor in reprehenderit in voluptate velit esse cillum dolore eu fugiat nulla pariatur. Excepteur sint occaecat cupidatat non proident, sunt in culpa qui officia deserunt mollit anim id est laborum.",Autopista Autopoista Gc-1 Km. 8,28.014444,-15.388611,,,,https://rtve.es/contenidos/fotos/datos/2023/hormigon/espasante_12.jpeg,Isabel,https://rtve.es/contenidos/fotos/datos/2023/hormigon/espasante_13.jpeg,Isabel,Benita,
Islas Canarias,Las Palmas,Arucas,,,35006,Privada,Museo,No,"Lorem ipsum dolor sit amet, consectetur adipiscing elit, sed do eiusmod tempor incididunt ut labore et dolore magna aliqua. Ut enim ad minim veniam, quis nostrud exercitation ullamco laboris nisi ut aliquip ex ea commodo consequat.","Autovia Autovia Arucas S/N Km. 3,5",28.117472,-15.517639,,,,https://rtve.es/contenidos/fotos/datos/2023/hormigon/espasante_12.jpeg,Isabel,https://rtve.es/contenidos/fotos/datos/2023/hormigon/espasante_13.jpeg,Isabel,Benita,
Islas Canarias,Las Palmas,San Bartolomé De Tirajana,,,35019,Privada,Museo,No,"Duis aute irure dolor in reprehenderit in voluptate velit esse cillum dolore eu fugiat nulla pariatur. Excepteur sint occaecat cupidatat non proident, sunt in culpa qui officia deserunt mollit anim id est laborum.","Autovia Gc-1 Km. 34,6",27.803972,-15.482278,,,,https://rtve.es/contenidos/fotos/datos/2023/hormigon/espasante_12.jpeg,Isabel,https://rtve.es/contenidos/fotos/datos/2023/hormigon/espasante_13.jpeg,Isabel,Benita,
Galicia,A Coruña,Cariño,,,15901,Privada,Museo,No,"Lorem ipsum dolor sit amet, consectetur adipiscing elit, sed do eiusmod tempor incididunt ut labore et dolore magna aliqua. Ut enim ad minim veniam, quis nostrud exercitation ullamco laboris nisi ut aliquip ex ea commodo consequat.",A Pedra,43.731806,-7.878278,,,,https://rtve.es/contenidos/fotos/datos/2023/hormigon/espasante_12.jpeg,Isabel,https://rtve.es/contenidos/fotos/datos/2023/hormigon/espasante_13.jpeg,Isabel,Benita,
Galicia,A Coruña,Oza-Cesuras,,,15902,Privada,Museo,No,"Duis aute irure dolor in reprehenderit in voluptate velit esse cillum dolore eu fugiat nulla pariatur. Excepteur sint occaecat cupidatat non proident, sunt in culpa qui officia deserunt mollit anim id est laborum.","Ac 840 Km 6,89",43.225889,-8.1905,,,,https://rtve.es/contenidos/fotos/datos/2023/hormigon/espasante_12.jpeg,Isabel,https://rtve.es/contenidos/fotos/datos/2023/hormigon/espasante_13.jpeg,Isabel,Lucrecio,
Galicia,A Coruña,Moeche,,,15049,Privada,Museo,No,"Lorem ipsum dolor sit amet, consectetur adipiscing elit, sed do eiusmod tempor incididunt ut labore et dolore magna aliqua. Ut enim ad minim veniam, quis nostrud exercitation ullamco laboris nisi ut aliquip ex ea commodo consequat.",Ac-862 Km 24,43.565417,-8.021861,,,,https://rtve.es/contenidos/fotos/datos/2023/hormigon/espasante_12.jpeg,Isabel,https://rtve.es/contenidos/fotos/datos/2023/hormigon/espasante_13.jpeg,Isabel,Lucrecio,
Islas Canarias,Santa Cruz De Tenerife,Arafo,,,38004,Privada,Museo,No,"Duis aute irure dolor in reprehenderit in voluptate velit esse cillum dolore eu fugiat nulla pariatur. Excepteur sint occaecat cupidatat non proident, sunt in culpa qui officia deserunt mollit anim id est laborum.","Acceso Carretera A La Hidalga, S/N",28.330194,-16.384833,,,,https://rtve.es/contenidos/fotos/datos/2023/hormigon/espasante_12.jpeg,Isabel,https://rtve.es/contenidos/fotos/datos/2023/hormigon/espasante_13.jpeg,Isabel,Lucrecio,
Islas Canarias,Santa Cruz De Tenerife,San Miguel De Abona,,,38035,Privada,Museo,No,"Lorem ipsum dolor sit amet, consectetur adipiscing elit, sed do eiusmod tempor incididunt ut labore et dolore magna aliqua. Ut enim ad minim veniam, quis nostrud exercitation ullamco laboris nisi ut aliquip ex ea commodo consequat.","Autopista Autopista Del Sur Km. 64,9",28.052333,-16.636556,,,,https://rtve.es/contenidos/fotos/datos/2023/hormigon/espasante_12.jpeg,Isabel,https://rtve.es/contenidos/fotos/datos/2023/hormigon/espasante_13.jpeg,Isabel,Lucrecio,
Asturias,Asturias,Ibias,,,33028,Privada,Museo,No,"Duis aute irure dolor in reprehenderit in voluptate velit esse cillum dolore eu fugiat nulla pariatur. Excepteur sint occaecat cupidatat non proident, sunt in culpa qui officia deserunt mollit anim id est laborum.","Aldea Av Aurelio Menendez, Sn",43.038139,-6.871306,,,,https://rtve.es/contenidos/fotos/datos/2023/hormigon/espasante_12.jpeg,Isabel,https://rtve.es/contenidos/fotos/datos/2023/hormigon/espasante_13.jpeg,Isabel,Lucrecio,
Asturias,Asturias,Aller,,,33002,Privada,Museo,No,"Lorem ipsum dolor sit amet, consectetur adipiscing elit, sed do eiusmod tempor incididunt ut labore et dolore magna aliqua. Ut enim ad minim veniam, quis nostrud exercitation ullamco laboris nisi ut aliquip ex ea commodo consequat.","As-112 Km 5,8",43.16475,-5.674861,,,,https://rtve.es/contenidos/fotos/datos/2023/hormigon/espasante_12.jpeg,Isabel,https://rtve.es/contenidos/fotos/datos/2023/hormigon/espasante_13.jpeg,Isabel,Lucrecio,
Asturias,Asturias,Teverga,,,33072,Privada,Museo,No,"Duis aute irure dolor in reprehenderit in voluptate velit esse cillum dolore eu fugiat nulla pariatur. Excepteur sint occaecat cupidatat non proident, sunt in culpa qui officia deserunt mollit anim id est laborum.",As-228 Km 28,43.164806,-6.096833,,,,https://rtve.es/contenidos/fotos/datos/2023/hormigon/espasante_12.jpeg,Isabel,https://rtve.es/contenidos/fotos/datos/2023/hormigon/espasante_13.jpeg,Isabel,Lucrecio,
Aragón,Zaragoza,La Muela,,,50182,Privada,Museo,No,"Lorem ipsum dolor sit amet, consectetur adipiscing elit, sed do eiusmod tempor incididunt ut labore et dolore magna aliqua. Ut enim ad minim veniam, quis nostrud exercitation ullamco laboris nisi ut aliquip ex ea commodo consequat.","A Ii, Km Km 299,3",41.58575,-1.099611,,,,https://rtve.es/contenidos/fotos/datos/2023/hormigon/espasante_12.jpeg,Isabel,https://rtve.es/contenidos/fotos/datos/2023/hormigon/espasante_13.jpeg,Isabel,Lucrecio,
Aragón,Zaragoza,Alberite De San Juan,,,50010,Privada,Museo,No,"Duis aute irure dolor in reprehenderit in voluptate velit esse cillum dolore eu fugiat nulla pariatur. Excepteur sint occaecat cupidatat non proident, sunt in culpa qui officia deserunt mollit anim id est laborum.",A-121 Km 2,41.815722,-1.470056,,,,https://rtve.es/contenidos/fotos/datos/2023/hormigon/espasante_12.jpeg,Isabel,https://rtve.es/contenidos/fotos/datos/2023/hormigon/espasante_13.jpeg,Isabel,Lucrecio,
Aragón,Zaragoza,Sobradiel,,,50247,Privada,Museo,No,"Lorem ipsum dolor sit amet, consectetur adipiscing elit, sed do eiusmod tempor incididunt ut labore et dolore magna aliqua. Ut enim ad minim veniam, quis nostrud exercitation ullamco laboris nisi ut aliquip ex ea commodo consequat.","Au A-68, 283",41.730583,-1.031417,,,,https://rtve.es/contenidos/fotos/datos/2023/hormigon/espasante_12.jpeg,Isabel,https://rtve.es/contenidos/fotos/datos/2023/hormigon/espasante_13.jpeg,Isabel,Lucrecio,
Galicia,Pontevedra,Salvaterra De Miño,,,36050,Privada,Museo,No,"Duis aute irure dolor in reprehenderit in voluptate velit esse cillum dolore eu fugiat nulla pariatur. Excepteur sint occaecat cupidatat non proident, sunt in culpa qui officia deserunt mollit anim id est laborum.","A-52 Salida 291, Ctra Ponteareas- As Neves, Km Po-9006",42.141917,-8.462,,,,https://rtve.es/contenidos/fotos/datos/2023/hormigon/espasante_12.jpeg,Isabel,https://rtve.es/contenidos/fotos/datos/2023/hormigon/espasante_13.jpeg,Isabel,Lucrecio,
Galicia,Pontevedra,Silleda,,,36052,Privada,Museo,No,"Lorem ipsum dolor sit amet, consectetur adipiscing elit, sed do eiusmod tempor incididunt ut labore et dolore magna aliqua. Ut enim ad minim veniam, quis nostrud exercitation ullamco laboris nisi ut aliquip ex ea commodo consequat.","Ap-53 Km 28,000",42.716389,-8.300833,,,,https://rtve.es/contenidos/fotos/datos/2023/hormigon/espasante_12.jpeg,Isabel,https://rtve.es/contenidos/fotos/datos/2023/hormigon/espasante_13.jpeg,Isabel,Lucrecio,
Galicia,Pontevedra,Vilaboa,,,36058,Privada,Museo,No,"Duis aute irure dolor in reprehenderit in voluptate velit esse cillum dolore eu fugiat nulla pariatur. Excepteur sint occaecat cupidatat non proident, sunt in culpa qui officia deserunt mollit anim id est laborum.","Au A-9  Pontevedra Sur-Vigo, 13",42.3185,-8.662806,,,,https://rtve.es/contenidos/fotos/datos/2023/hormigon/espasante_12.jpeg,Isabel,https://rtve.es/contenidos/fotos/datos/2023/hormigon/espasante_13.jpeg,Isabel,Lucrecio,
Andalucía,Granada,Baza,,,18023,Privada,Museo,No,"Lorem ipsum dolor sit amet, consectetur adipiscing elit, sed do eiusmod tempor incididunt ut labore et dolore magna aliqua. Ut enim ad minim veniam, quis nostrud exercitation ullamco laboris nisi ut aliquip ex ea commodo consequat.",A-334 Km 4.5,37.481666,-2.766909,,,,https://rtve.es/contenidos/fotos/datos/2023/hormigon/espasante_12.jpeg,Isabel,https://rtve.es/contenidos/fotos/datos/2023/hormigon/espasante_13.jpeg,Isabel,Lucrecio,
Andalucía,Granada,Albuñol,,,18006,Privada,Museo,No,"Duis aute irure dolor in reprehenderit in voluptate velit esse cillum dolore eu fugiat nulla pariatur. Excepteur sint occaecat cupidatat non proident, sunt in culpa qui officia deserunt mollit anim id est laborum.","A-345 Km 64,7",36.761972,-3.182889,,,,https://rtve.es/contenidos/fotos/datos/2023/hormigon/espasante_12.jpeg,Isabel,https://rtve.es/contenidos/fotos/datos/2023/hormigon/espasante_13.jpeg,Isabel,Lucrecio,
Andalucía,Granada,Albolote,,,18003,Privada,Museo,No,"Lorem ipsum dolor sit amet, consectetur adipiscing elit, sed do eiusmod tempor incididunt ut labore et dolore magna aliqua. Ut enim ad minim veniam, quis nostrud exercitation ullamco laboris nisi ut aliquip ex ea commodo consequat.","A-92 Km 239,000",37.232667,-3.667139,,,,https://rtve.es/contenidos/fotos/datos/2023/hormigon/espasante_12.jpeg,Isabel,https://rtve.es/contenidos/fotos/datos/2023/hormigon/espasante_13.jpeg,Isabel,Lucrecio,
Cataluña,Tarragona,Vandellòs I L'hospitalet De L'infant,,,43162,Privada,Museo,No,"Duis aute irure dolor in reprehenderit in voluptate velit esse cillum dolore eu fugiat nulla pariatur. Excepteur sint occaecat cupidatat non proident, sunt in culpa qui officia deserunt mollit anim id est laborum.","Acceso Norte A Vandellòs (C-233 Km 9,8)",41.020139,0.82725,,,,https://rtve.es/contenidos/fotos/datos/2023/hormigon/espasante_12.jpeg,Isabel,https://rtve.es/contenidos/fotos/datos/2023/hormigon/espasante_13.jpeg,Isabel,Lucrecio,
Cataluña,Tarragona,Reus,,,43123,Privada,Museo,No,"Lorem ipsum dolor sit amet, consectetur adipiscing elit, sed do eiusmod tempor incididunt ut labore et dolore magna aliqua. Ut enim ad minim veniam, quis nostrud exercitation ullamco laboris nisi ut aliquip ex ea commodo consequat.",Apel·les Mestres 44-46,41.162944,1.071278,,,,https://rtve.es/contenidos/fotos/datos/2023/hormigon/espasante_12.jpeg,Isabel,https://rtve.es/contenidos/fotos/datos/2023/hormigon/espasante_13.jpeg,Isabel,Lucrecio,
Cataluña,Girona,Lloret De Mar,,,17095,Privada,Museo,No,"Duis aute irure dolor in reprehenderit in voluptate velit esse cillum dolore eu fugiat nulla pariatur. Excepteur sint occaecat cupidatat non proident, sunt in culpa qui officia deserunt mollit anim id est laborum.","Avenida Av Vila De Blanes 120,",41.7,2.831139,,,,https://rtve.es/contenidos/fotos/datos/2023/hormigon/espasante_12.jpeg,Isabel,https://rtve.es/contenidos/fotos/datos/2023/hormigon/espasante_13.jpeg,Isabel,Lucrecio,
Cataluña,Girona,Castell-Platja D'aro,,,17048,Privada,Museo,No,"Lorem ipsum dolor sit amet, consectetur adipiscing elit, sed do eiusmod tempor incididunt ut labore et dolore magna aliqua. Ut enim ad minim veniam, quis nostrud exercitation ullamco laboris nisi ut aliquip ex ea commodo consequat.","Avenida Castell D'aro, 122",41.816222,3.050861,,,,https://rtve.es/contenidos/fotos/datos/2023/hormigon/espasante_12.jpeg,Isabel,https://rtve.es/contenidos/fotos/datos/2023/hormigon/espasante_13.jpeg,Isabel,Lucrecio,
Andalucía,Córdoba,Aguilar De La Frontera,,,14002,Privada,Museo,No,"Duis aute irure dolor in reprehenderit in voluptate velit esse cillum dolore eu fugiat nulla pariatur. Excepteur sint occaecat cupidatat non proident, sunt in culpa qui officia deserunt mollit anim id est laborum.","Avenida Antonio Sanchez, 21",37.509861,-4.654778,,,,https://rtve.es/contenidos/fotos/datos/2023/hormigon/espasante_12.jpeg,Isabel,https://rtve.es/contenidos/fotos/datos/2023/hormigon/espasante_13.jpeg,Isabel,Lucrecio,
Andalucía,Córdoba,Palma Del Río,,,14049,Privada,Museo,No,"Lorem ipsum dolor sit amet, consectetur adipiscing elit, sed do eiusmod tempor incididunt ut labore et dolore magna aliqua. Ut enim ad minim veniam, quis nostrud exercitation ullamco laboris nisi ut aliquip ex ea commodo consequat.","Avenida Avenida De La Paz Sn  / Gran Via Aulio Cornelio Palma  Sn, Sn",37.700056,-5.272694,,,,https://rtve.es/contenidos/fotos/datos/2023/hormigon/espasante_12.jpeg,Isabel,https://rtve.es/contenidos/fotos/datos/2023/hormigon/espasante_13.jpeg,Isabel,Lucrecio,
Andalucía,Almería,El Ejido,,,04902,Privada,Museo,No,"Duis aute irure dolor in reprehenderit in voluptate velit esse cillum dolore eu fugiat nulla pariatur. Excepteur sint occaecat cupidatat non proident, sunt in culpa qui officia deserunt mollit anim id est laborum.","Calle Agua, 60",36.709667,-2.691417,,,,https://rtve.es/contenidos/fotos/datos/2023/hormigon/espasante_12.jpeg,Isabel,https://rtve.es/contenidos/fotos/datos/2023/hormigon/espasante_13.jpeg,Isabel,Lucrecio,
Andalucía,Almería,Fines,,,04044,Privada,Museo,No,"Lorem ipsum dolor sit amet, consectetur adipiscing elit, sed do eiusmod tempor incididunt ut labore et dolore magna aliqua. Ut enim ad minim veniam, quis nostrud exercitation ullamco laboris nisi ut aliquip ex ea commodo consequat.","Calle Argentina (Cañ), 34",37.363417,-2.266972,,,,https://rtve.es/contenidos/fotos/datos/2023/hormigon/espasante_12.jpeg,Isabel,https://rtve.es/contenidos/fotos/datos/2023/hormigon/espasante_13.jpeg,Isabel,Lucrecio,
País Vasco,Gipuzkoa,Donostia/San Sebastián,,,20069,Privada,Museo,No,"Duis aute irure dolor in reprehenderit in voluptate velit esse cillum dolore eu fugiat nulla pariatur. Excepteur sint occaecat cupidatat non proident, sunt in culpa qui officia deserunt mollit anim id est laborum.","Avenida Hipodromo, S/N",43.25425,-2.023,,,,https://rtve.es/contenidos/fotos/datos/2023/hormigon/espasante_12.jpeg,Isabel,https://rtve.es/contenidos/fotos/datos/2023/hormigon/espasante_13.jpeg,Isabel,Lucrecio,
País Vasco,Gipuzkoa,Irun,,,20045,Privada,Museo,No,"Lorem ipsum dolor sit amet, consectetur adipiscing elit, sed do eiusmod tempor incididunt ut labore et dolore magna aliqua. Ut enim ad minim veniam, quis nostrud exercitation ullamco laboris nisi ut aliquip ex ea commodo consequat.","Avenida Iparralde, 42",43.347278,-1.787028,,,,https://rtve.es/contenidos/fotos/datos/2023/hormigon/espasante_12.jpeg,Isabel,https://rtve.es/contenidos/fotos/datos/2023/hormigon/espasante_13.jpeg,Isabel,Lucrecia,
Castilla-La Mancha,Toledo,Illescas,,,45081,Privada,Colegio,No,"Duis aute irure dolor in reprehenderit in voluptate velit esse cillum dolore eu fugiat nulla pariatur. Excepteur sint occaecat cupidatat non proident, sunt in culpa qui officia deserunt mollit anim id est laborum.","Avenida Castilla La Mancha, 79",40.126306,-3.84625,,,,https://rtve.es/contenidos/fotos/datos/2023/hormigon/espasante_12.jpeg,Isabel,https://rtve.es/contenidos/fotos/datos/2023/hormigon/espasante_13.jpeg,Isabel,Lucrecia,
Castilla-La Mancha,Toledo,Alameda De La Sagra,,,45002,Privada,Colegio,No,"Lorem ipsum dolor sit amet, consectetur adipiscing elit, sed do eiusmod tempor incididunt ut labore et dolore magna aliqua. Ut enim ad minim veniam, quis nostrud exercitation ullamco laboris nisi ut aliquip ex ea commodo consequat.","Avenida Castilla La Mancha, 8",40.014778,-3.805028,,,,https://rtve.es/contenidos/fotos/datos/2023/hormigon/espasante_12.jpeg,Isabel,https://rtve.es/contenidos/fotos/datos/2023/hormigon/espasante_13.jpeg,Isabel,Lucrecia,
Extremadura,Badajoz,Acedera,,,06001,Privada,Colegio,No,"Duis aute irure dolor in reprehenderit in voluptate velit esse cillum dolore eu fugiat nulla pariatur. Excepteur sint occaecat cupidatat non proident, sunt in culpa qui officia deserunt mollit anim id est laborum.","Plaza De La Iglesia, S/N",39.084861,-5.625139,,,,https://rtve.es/contenidos/fotos/datos/2023/hormigon/espasante_12.jpeg,Isabel,https://rtve.es/contenidos/fotos/datos/2023/hormigon/espasante_13.jpeg,Isabel,Lucrecia,
Extremadura,Badajoz,Badajoz,,,06015,Privada,Colegio,No,"Lorem ipsum dolor sit amet, consectetur adipiscing elit, sed do eiusmod tempor incididunt ut labore et dolore magna aliqua. Ut enim ad minim veniam, quis nostrud exercitation ullamco laboris nisi ut aliquip ex ea commodo consequat.","Plaza Plaza Del Pilar, S/N, S/N",38.874333,-6.971306,,,,https://rtve.es/contenidos/fotos/datos/2023/hormigon/espasante_12.jpeg,Isabel,https://rtve.es/contenidos/fotos/datos/2023/hormigon/espasante_13.jpeg,Isabel,Lucrecia,
Navarra,Navarra,Carcastillo,,,31067,Privada,Colegio,No,"Duis aute irure dolor in reprehenderit in voluptate velit esse cillum dolore eu fugiat nulla pariatur. Excepteur sint occaecat cupidatat non proident, sunt in culpa qui officia deserunt mollit anim id est laborum.",Avenida Aragon 50,42.373833,-1.44323,,,,https://rtve.es/contenidos/fotos/datos/2023/hormigon/espasante_12.jpeg,Isabel,https://rtve.es/contenidos/fotos/datos/2023/hormigon/espasante_13.jpeg,Isabel,Lucrecia,
Navarra,Navarra,Olite/Erriberri,,,31191,Privada,Colegio,No,"Lorem ipsum dolor sit amet, consectetur adipiscing elit, sed do eiusmod tempor incididunt ut labore et dolore magna aliqua. Ut enim ad minim veniam, quis nostrud exercitation ullamco laboris nisi ut aliquip ex ea commodo consequat.","Avenida Beire, 55",42.474083,-1.645444,,,,https://rtve.es/contenidos/fotos/datos/2023/hormigon/espasante_12.jpeg,Isabel,https://rtve.es/contenidos/fotos/datos/2023/hormigon/espasante_13.jpeg,Isabel,Lucrecia,
Andalucía,Jaén,Úbeda,,,23092,Privada,Colegio,No,"Duis aute irure dolor in reprehenderit in voluptate velit esse cillum dolore eu fugiat nulla pariatur. Excepteur sint occaecat cupidatat non proident, sunt in culpa qui officia deserunt mollit anim id est laborum.","Calle Carretera De Vilches, S/N",38.026167,-3.369528,,,,https://rtve.es/contenidos/fotos/datos/2023/hormigon/espasante_12.jpeg,Isabel,https://rtve.es/contenidos/fotos/datos/2023/hormigon/espasante_13.jpeg,Isabel,Lucrecia,
Andalucía,Jaén,Jaén,,,23050,Privada,Colegio,No,"Lorem ipsum dolor sit amet, consectetur adipiscing elit, sed do eiusmod tempor incididunt ut labore et dolore magna aliqua. Ut enim ad minim veniam, quis nostrud exercitation ullamco laboris nisi ut aliquip ex ea commodo consequat.","Calle Castellar, S/N",37.794667,-3.785694,,,,https://rtve.es/contenidos/fotos/datos/2023/hormigon/espasante_12.jpeg,Isabel,https://rtve.es/contenidos/fotos/datos/2023/hormigon/espasante_13.jpeg,Isabel,Lucrecia,
Comunidad Valenciana,Castellón/Castelló,Borriana/Burriana,,,12032,Privada,Colegio,No,"Duis aute irure dolor in reprehenderit in voluptate velit esse cillum dolore eu fugiat nulla pariatur. Excepteur sint occaecat cupidatat non proident, sunt in culpa qui officia deserunt mollit anim id est laborum.","Cl Avenida Jaime Chicharro, 6",39.882778,-0.080611,,,,https://rtve.es/contenidos/fotos/datos/2023/hormigon/espasante_12.jpeg,Isabel,https://rtve.es/contenidos/fotos/datos/2023/hormigon/espasante_13.jpeg,Isabel,Lucrecia,
Comunidad Valenciana,Castellón/Castelló,Segorbe,,,12104,Privada,Colegio,No,"Lorem ipsum dolor sit amet, consectetur adipiscing elit, sed do eiusmod tempor incididunt ut labore et dolore magna aliqua. Ut enim ad minim veniam, quis nostrud exercitation ullamco laboris nisi ut aliquip ex ea commodo consequat.","Cl Avenida Navarro Reverter, 10",39.849972,-0.486611,,,,https://rtve.es/contenidos/fotos/datos/2023/hormigon/espasante_12.jpeg,Isabel,https://rtve.es/contenidos/fotos/datos/2023/hormigon/espasante_13.jpeg,Isabel,Lucrecia,
Cantabria,Cantabria,El Astillero,,,39008,Privada,Colegio,No,"Duis aute irure dolor in reprehenderit in voluptate velit esse cillum dolore eu fugiat nulla pariatur. Excepteur sint occaecat cupidatat non proident, sunt in culpa qui officia deserunt mollit anim id est laborum.","Calle Boo, 52",43.412222,-3.8435,,,,https://rtve.es/contenidos/fotos/datos/2023/hormigon/espasante_12.jpeg,Isabel,https://rtve.es/contenidos/fotos/datos/2023/hormigon/espasante_13.jpeg,Isabel,Lucrecia,
Cantabria,Cantabria,Cartes,,,39018,Privada,Colegio,No,"Lorem ipsum dolor sit amet, consectetur adipiscing elit, sed do eiusmod tempor incididunt ut labore et dolore magna aliqua. Ut enim ad minim veniam, quis nostrud exercitation ullamco laboris nisi ut aliquip ex ea commodo consequat.","Calle Cartes-Carabete, 9",43.322556,-4.07425,,,,https://rtve.es/contenidos/fotos/datos/2023/hormigon/espasante_12.jpeg,Isabel,https://rtve.es/contenidos/fotos/datos/2023/hormigon/espasante_13.jpeg,Isabel,Lucrecia,
Andalucía,Huelva,Ayamonte,,,21010,Privada,Colegio,No,"Duis aute irure dolor in reprehenderit in voluptate velit esse cillum dolore eu fugiat nulla pariatur. Excepteur sint occaecat cupidatat non proident, sunt in culpa qui officia deserunt mollit anim id est laborum.","Avenida Cayetano Feu, N",37.21425,-7.400972,,,,https://rtve.es/contenidos/fotos/datos/2023/hormigon/espasante_12.jpeg,Isabel,https://rtve.es/contenidos/fotos/datos/2023/hormigon/espasante_13.jpeg,Isabel,Lucrecia,
Andalucía,Huelva,Puebla De Guzmán,,,21058,Privada,Colegio,No,"Lorem ipsum dolor sit amet, consectetur adipiscing elit, sed do eiusmod tempor incididunt ut labore et dolore magna aliqua. Ut enim ad minim veniam, quis nostrud exercitation ullamco laboris nisi ut aliquip ex ea commodo consequat.","Avenida Constitucion De La, 15",37.610556,-7.252361,,,,https://rtve.es/contenidos/fotos/datos/2023/hormigon/espasante_12.jpeg,Isabel,https://rtve.es/contenidos/fotos/datos/2023/hormigon/espasante_13.jpeg,Isabel,Lucrecia,
Castilla y León,Valladolid,Valladolid,,,47186,Privada,Colegio,No,"Duis aute irure dolor in reprehenderit in voluptate velit esse cillum dolore eu fugiat nulla pariatur. Excepteur sint occaecat cupidatat non proident, sunt in culpa qui officia deserunt mollit anim id est laborum.","Avenida De Burgos, 51",41.674361,-4.724222,,,,https://rtve.es/contenidos/fotos/datos/2023/hormigon/espasante_12.jpeg,Isabel,https://rtve.es/contenidos/fotos/datos/2023/hormigon/espasante_13.jpeg,Isabel,Lucrecia,
Castilla y León,Valladolid,Medina Del Campo,,,47085,Privada,Colegio,No,"Lorem ipsum dolor sit amet, consectetur adipiscing elit, sed do eiusmod tempor incididunt ut labore et dolore magna aliqua. Ut enim ad minim veniam, quis nostrud exercitation ullamco laboris nisi ut aliquip ex ea commodo consequat.","Avenida De La Constitucion, 54",41.318139,-4.916472,,,,https://rtve.es/contenidos/fotos/datos/2023/hormigon/espasante_12.jpeg,Isabel,https://rtve.es/contenidos/fotos/datos/2023/hormigon/espasante_13.jpeg,Isabel,Lucrecia,
Castilla-La Mancha,Ciudad Real,Daimiel,,,13039,Privada,Colegio,No,"Duis aute irure dolor in reprehenderit in voluptate velit esse cillum dolore eu fugiat nulla pariatur. Excepteur sint occaecat cupidatat non proident, sunt in culpa qui officia deserunt mollit anim id est laborum.","Calle Tiburcio, 98",39.062222,-3.618194,,,,https://rtve.es/contenidos/fotos/datos/2023/hormigon/espasante_12.jpeg,Isabel,https://rtve.es/contenidos/fotos/datos/2023/hormigon/espasante_13.jpeg,Isabel,Lucrecia,
Castilla-La Mancha,Ciudad Real,Porzuna,,,13065,Privada,Colegio,No,"Lorem ipsum dolor sit amet, consectetur adipiscing elit, sed do eiusmod tempor incididunt ut labore et dolore magna aliqua. Ut enim ad minim veniam, quis nostrud exercitation ullamco laboris nisi ut aliquip ex ea commodo consequat.","Calle Toledo,, 50",39.153139,-4.162472,,,,https://rtve.es/contenidos/fotos/datos/2023/hormigon/espasante_12.jpeg,Isabel,https://rtve.es/contenidos/fotos/datos/2023/hormigon/espasante_13.jpeg,Isabel,Lucrecia,
Castilla y León,León,Santa María De La Isla,,,24155,Privada,Colegio,No,"Duis aute irure dolor in reprehenderit in voluptate velit esse cillum dolore eu fugiat nulla pariatur. Excepteur sint occaecat cupidatat non proident, sunt in culpa qui officia deserunt mollit anim id est laborum.","Calle El Parque, 9",42.375139,-5.935528,,,,https://rtve.es/contenidos/fotos/datos/2023/hormigon/espasante_12.jpeg,Isabel,https://rtve.es/contenidos/fotos/datos/2023/hormigon/espasante_13.jpeg,Isabel,Lucrecia,
Cataluña,Lleida,Lleida,,,25120,Privada,Colegio,No,"Lorem ipsum dolor sit amet, consectetur adipiscing elit, sed do eiusmod tempor incididunt ut labore et dolore magna aliqua. Ut enim ad minim veniam, quis nostrud exercitation ullamco laboris nisi ut aliquip ex ea commodo consequat.","Calle Enginyer Antoni Llobet, S/N",41.602444,0.632167,,,,https://rtve.es/contenidos/fotos/datos/2023/hormigon/espasante_12.jpeg,Isabel,https://rtve.es/contenidos/fotos/datos/2023/hormigon/espasante_13.jpeg,Isabel,Lucrecia,
Extremadura,Cáceres,Cáceres,,,10037,Privada,Colegio,No,"Duis aute irure dolor in reprehenderit in voluptate velit esse cillum dolore eu fugiat nulla pariatur. Excepteur sint occaecat cupidatat non proident, sunt in culpa qui officia deserunt mollit anim id est laborum.","Calle Gil Cordero, S,N",39.469417,-6.382444,,,,https://rtve.es/contenidos/fotos/datos/2023/hormigon/espasante_12.jpeg,Isabel,https://rtve.es/contenidos/fotos/datos/2023/hormigon/espasante_13.jpeg,Isabel,Lucrecia,
Castilla-La Mancha,Albacete,Albacete,,,02003,Privada,Colegio,No,"Lorem ipsum dolor sit amet, consectetur adipiscing elit, sed do eiusmod tempor incididunt ut labore et dolore magna aliqua. Ut enim ad minim veniam, quis nostrud exercitation ullamco laboris nisi ut aliquip ex ea commodo consequat.","Calle Hermanos Falcó, 2",38.98925,-1.849028,,,,https://rtve.es/contenidos/fotos/datos/2023/hormigon/espasante_12.jpeg,Isabel,https://rtve.es/contenidos/fotos/datos/2023/hormigon/espasante_13.jpeg,Isabel,Lucrecia,
Castilla y León,Burgos,Burgos,,,09059,Privada,Colegio,No,"Duis aute irure dolor in reprehenderit in voluptate velit esse cillum dolore eu fugiat nulla pariatur. Excepteur sint occaecat cupidatat non proident, sunt in culpa qui officia deserunt mollit anim id est laborum.","Calle Juan Ramón Jimenez, S/N",42.351167,-3.660306,,,,https://rtve.es/contenidos/fotos/datos/2023/hormigon/espasante_12.jpeg,Isabel,https://rtve.es/contenidos/fotos/datos/2023/hormigon/espasante_13.jpeg,Isabel,Lucrecia,
País Vasco,Araba/Álava,Vitoria-Gasteiz,,,01059,Privada,Colegio,No,"Lorem ipsum dolor sit amet, consectetur adipiscing elit, sed do eiusmod tempor incididunt ut labore et dolore magna aliqua. Ut enim ad minim veniam, quis nostrud exercitation ullamco laboris nisi ut aliquip ex ea commodo consequat.","Calle Jundiz, 14",42.83675,-2.736361,,,,https://rtve.es/contenidos/fotos/datos/2023/hormigon/espasante_12.jpeg,Isabel,https://rtve.es/contenidos/fotos/datos/2023/hormigon/espasante_13.jpeg,Isabel,Lucrecia,
Castilla y León,Salamanca,Carbajosa De La Sagrada,,,37085,Privada,Colegio,No,"Duis aute irure dolor in reprehenderit in voluptate velit esse cillum dolore eu fugiat nulla pariatur. Excepteur sint occaecat cupidatat non proident, sunt in culpa qui officia deserunt mollit anim id est laborum.","Calle Newton, 13",40.943306,-5.655139,,,,https://rtve.es/contenidos/fotos/datos/2023/hormigon/espasante_12.jpeg,Isabel,https://rtve.es/contenidos/fotos/datos/2023/hormigon/espasante_13.jpeg,Isabel,Lucrecia,
La Rioja,La Rioja,Logroño,,,26089,Privada,Colegio,No,"Lorem ipsum dolor sit amet, consectetur adipiscing elit, sed do eiusmod tempor incididunt ut labore et dolore magna aliqua. Ut enim ad minim veniam, quis nostrud exercitation ullamco laboris nisi ut aliquip ex ea commodo consequat.","Calle Piqueras, 22",42.456556,-2.432361,,,,https://rtve.es/contenidos/fotos/datos/2023/hormigon/espasante_12.jpeg,Isabel,https://rtve.es/contenidos/fotos/datos/2023/hormigon/espasante_13.jpeg,Isabel,Lucrecia,
Galicia,Ourense,Ourense,,,32054,Privada,Colegio,No,"Duis aute irure dolor in reprehenderit in voluptate velit esse cillum dolore eu fugiat nulla pariatur. Excepteur sint occaecat cupidatat non proident, sunt in culpa qui officia deserunt mollit anim id est laborum.","Calle Poblado Velle, S/N",42.356944,-7.844639,,,,https://rtve.es/contenidos/fotos/datos/2023/hormigon/espasante_12.jpeg,Isabel,https://rtve.es/contenidos/fotos/datos/2023/hormigon/espasante_13.jpeg,Isabel,Lucrecia,
Castilla-La Mancha,Guadalajara,Yunquera De Henares,,,19331,Privada,Colegio,No,"Lorem ipsum dolor sit amet, consectetur adipiscing elit, sed do eiusmod tempor incididunt ut labore et dolore magna aliqua. Ut enim ad minim veniam, quis nostrud exercitation ullamco laboris nisi ut aliquip ex ea commodo consequat.","Calle Real, 122",40.750139,-3.166861,,,,https://rtve.es/contenidos/fotos/datos/2023/hormigon/espasante_12.jpeg,Isabel,https://rtve.es/contenidos/fotos/datos/2023/hormigon/espasante_13.jpeg,Isabel,Lucrecia,
Aragón,Huesca,Jaca,,,22130,Privada,Colegio,No,"Duis aute irure dolor in reprehenderit in voluptate velit esse cillum dolore eu fugiat nulla pariatur. Excepteur sint occaecat cupidatat non proident, sunt in culpa qui officia deserunt mollit anim id est laborum.","Calle Rio Aragon, 1",42.563667,-0.570222,,,,https://rtve.es/contenidos/fotos/datos/2023/hormigon/espasante_12.jpeg,Isabel,https://rtve.es/contenidos/fotos/datos/2023/hormigon/espasante_13.jpeg,Isabel,Lucrecia,
Castilla-La Mancha,Cuenca,Saelices,,,16186,Privada,Colegio,No,"Lorem ipsum dolor sit amet, consectetur adipiscing elit, sed do eiusmod tempor incididunt ut labore et dolore magna aliqua. Ut enim ad minim veniam, quis nostrud exercitation ullamco laboris nisi ut aliquip ex ea commodo consequat.","Calle Sacramento, S/N",39.919667,-2.808111,,,,https://rtve.es/contenidos/fotos/datos/2023/hormigon/espasante_12.jpeg,Isabel,https://rtve.es/contenidos/fotos/datos/2023/hormigon/espasante_13.jpeg,Isabel,Lucrecia,
Castilla y León,Zamora,Zamora,,,49275,Privada,Colegio,No,"Duis aute irure dolor in reprehenderit in voluptate velit esse cillum dolore eu fugiat nulla pariatur. Excepteur sint occaecat cupidatat non proident, sunt in culpa qui officia deserunt mollit anim id est laborum.","Calle Salamanca, 46",41.495,-5.741583,,,,https://rtve.es/contenidos/fotos/datos/2023/hormigon/espasante_12.jpeg,Isabel,https://rtve.es/contenidos/fotos/datos/2023/hormigon/espasante_13.jpeg,Isabel,Lucrecia,
Castilla y León,Palencia,Palencia,,,34120,Privada,Colegio,No,"Lorem ipsum dolor sit amet, consectetur adipiscing elit, sed do eiusmod tempor incididunt ut labore et dolore magna aliqua. Ut enim ad minim veniam, quis nostrud exercitation ullamco laboris nisi ut aliquip ex ea commodo consequat.","Carretera C-615 Km. 2,3",42.027889,-4.550361,,,,https://rtve.es/contenidos/fotos/datos/2023/hormigon/espasante_12.jpeg,Isabel,https://rtve.es/contenidos/fotos/datos/2023/hormigon/espasante_13.jpeg,Isabel,Lucrecia,
Castilla y León,Ávila,El Hoyo De Pinares,,,05102,Privada,Piscina,No,"Duis aute irure dolor in reprehenderit in voluptate velit esse cillum dolore eu fugiat nulla pariatur. Excepteur sint occaecat cupidatat non proident, sunt in culpa qui officia deserunt mollit anim id est laborum.","Carretera Cebreros Km. 6,18",40.497806,-4.427083,,,,https://rtve.es/contenidos/fotos/datos/2023/hormigon/espasante_12.jpeg,Isabel,https://rtve.es/contenidos/fotos/datos/2023/hormigon/espasante_13.jpeg,Isabel,Lucrecia,
Castilla y León,Segovia,Vallelado,,,40219,Privada,Piscina,No,"Lorem ipsum dolor sit amet, consectetur adipiscing elit, sed do eiusmod tempor incididunt ut labore et dolore magna aliqua. Ut enim ad minim veniam, quis nostrud exercitation ullamco laboris nisi ut aliquip ex ea commodo consequat.","Carretera Cl 602 Olmedo- Cuellar Km. 101,640",41.398889,-4.443889,,,,https://rtve.es/contenidos/fotos/datos/2023/hormigon/espasante_12.jpeg,Isabel,https://rtve.es/contenidos/fotos/datos/2023/hormigon/espasante_13.jpeg,Isabel,Lucrecia,
Aragón,Teruel,Mas De Las Matas,,,44145,Privada,Piscina,No,"Duis aute irure dolor in reprehenderit in voluptate velit esse cillum dolore eu fugiat nulla pariatur. Excepteur sint occaecat cupidatat non proident, sunt in culpa qui officia deserunt mollit anim id est laborum.","Carretera De Calanda, S/N",40.8362,-0.244624,,,,https://rtve.es/contenidos/fotos/datos/2023/hormigon/espasante_12.jpeg,Isabel,https://rtve.es/contenidos/fotos/datos/2023/hormigon/espasante_13.jpeg,Isabel,Lucrecia,
Castilla y León,Segovia,La Lastrilla,,,40112,Privada,Piscina,No,"Lorem ipsum dolor sit amet, consectetur adipiscing elit, sed do eiusmod tempor incididunt ut labore et dolore magna aliqua. Ut enim ad minim veniam, quis nostrud exercitation ullamco laboris nisi ut aliquip ex ea commodo consequat.",Carretera N-110 A Soria Km 189 Parking Supermercado Km. 110,40.965917,-4.098417,,,,https://rtve.es/contenidos/fotos/datos/2023/hormigon/espasante_12.jpeg,Isabel,https://rtve.es/contenidos/fotos/datos/2023/hormigon/espasante_13.jpeg,Isabel,Lucrecia,
Melilla,Melilla,Melilla,,,52001,Privada,Piscina,No,"Duis aute irure dolor in reprehenderit in voluptate velit esse cillum dolore eu fugiat nulla pariatur. Excepteur sint occaecat cupidatat non proident, sunt in culpa qui officia deserunt mollit anim id est laborum.",General Polavieja Nº 2,35.286722,-2.942194,,,,https://rtve.es/contenidos/fotos/datos/2023/hormigon/espasante_12.jpeg,Isabel,https://rtve.es/contenidos/fotos/datos/2023/hormigon/espasante_13.jpeg,Isabel,Lucrecia,
Ceuta,Ceuta,Ceuta,,,51001,Privada,Piscina,No,"Lorem ipsum dolor sit amet, consectetur adipiscing elit, sed do eiusmod tempor incididunt ut labore et dolore magna aliqua. Ut enim ad minim veniam, quis nostrud exercitation ullamco laboris nisi ut aliquip ex ea commodo consequat.","Muelle Alfau, S/N",35.894722,-5.300861,,,,https://rtve.es/contenidos/fotos/datos/2023/hormigon/espasante_12.jpeg,Isabel,https://rtve.es/contenidos/fotos/datos/2023/hormigon/espasante_13.jpeg,Isabel,Lucrecia,